{
  "type": "FeatureCollection",
  "features": [
    {
      "type": "Feature",
      "properties": {
        "norad_id": 34540,
        "name": "IRIDIUM 33 DEB",
        "group": "iridium-33-debris",
        "lat": -58.27083198464358,
        "lon": 135.1964870369296,
        "alt_km": 647.3430759319881,
        "timestamp": "2025-12-09T05:43:21.110866+00:00",
        "meta_object_name": "IRIDIUM 33 DEB",
        "meta_object_id": "1997-051JH",
        "meta_epoch": "2025-12-08T16:26:16.783008",
        "meta_mean_motion": 14.75185439,
        "meta_eccentricity": 0.0015702,
        "meta_inclination": 86.3111,
        "meta_ra_of_asc_node": 309.4602,
        "meta_arg_of_pericenter": 173.5881,
        "meta_mean_anomaly": 6.9774,
        "meta_ephemeris_type": 0,
        "meta_classification_type": "U",
        "meta_norad_cat_id": 34540,
        "meta_element_set_no": 999,
        "meta_rev_at_epoch": 88961,
        "meta_bstar": 0.0023969,
        "meta_mean_motion_dot": 0.00016265,
        "meta_mean_motion_ddot": 0,
        "tle_line1": "1 34540U 97051JH  25342.68491647  .00016265  00000+0  23969-2 0  9999",
        "tle_line2": "2 34540  86.3111 309.4602 0015702 173.5881   6.9774 14.75185439889612"
      },
      "geometry": {
        "type": "Point",
        "coordinates": [
          135.1964870369296,
          -58.27083198464358
        ]
      }
    },
    {
      "type": "Feature",
      "properties": {
        "norad_id": 34648,
        "name": "IRIDIUM 33 DEB",
        "group": "iridium-33-debris",
        "lat": 70.27091409961423,
        "lon": 93.22445226597964,
        "alt_km": 972.5498553445077,
        "timestamp": "2025-12-09T05:43:21.110878+00:00",
        "meta_object_name": "IRIDIUM 33 DEB",
        "meta_object_id": "1997-051JZ",
        "meta_epoch": "2025-12-08T20:41:39.003936",
        "meta_mean_motion": 14.11300262,
        "meta_eccentricity": 0.0183955,
        "meta_inclination": 86.3913,
        "meta_ra_of_asc_node": 283.5113,
        "meta_arg_of_pericenter": 310.9542,
        "meta_mean_anomaly": 47.5843,
        "meta_ephemeris_type": 0,
        "meta_classification_type": "U",
        "meta_norad_cat_id": 34648,
        "meta_element_set_no": 999,
        "meta_rev_at_epoch": 84906,
        "meta_bstar": 0.013206,
        "meta_mean_motion_dot": 0.00028062,
        "meta_mean_motion_ddot": 0,
        "tle_line1": "1 34648U 97051JZ  25342.86225699  .00028062  00000+0  13206-1 0  9990",
        "tle_line2": "2 34648  86.3913 283.5113 0183955 310.9542  47.5843 14.11300262849063"
      },
      "geometry": {
        "type": "Point",
        "coordinates": [
          93.22445226597964,
          70.27091409961423
        ]
      }
    },
    {
      "type": "Feature",
      "properties": {
        "norad_id": 34651,
        "name": "IRIDIUM 33 DEB",
        "group": "iridium-33-debris",
        "lat": -13.2745349223519,
        "lon": 141.18836011217854,
        "alt_km": 877.833940527993,
        "timestamp": "2025-12-09T05:43:21.110889+00:00",
        "meta_object_name": "IRIDIUM 33 DEB",
        "meta_object_id": "1997-051KC",
        "meta_epoch": "2025-12-08T11:15:25.709184",
        "meta_mean_motion": 14.25701829,
        "meta_eccentricity": 0.01419793,
        "meta_inclination": 86.2851,
        "meta_ra_of_asc_node": 142.3937,
        "meta_arg_of_pericenter": 217.4974,
        "meta_mean_anomaly": 141.625,
        "meta_ephemeris_type": 0,
        "meta_classification_type": "U",
        "meta_norad_cat_id": 34651,
        "meta_element_set_no": 999,
        "meta_rev_at_epoch": 85835,
        "meta_bstar": 0.0043129114,
        "meta_mean_motion_dot": 0.00011398,
        "meta_mean_motion_ddot": 0,
        "tle_line1": "1 34651U 97051KC  25342.46904756  .00011398  00000+0  43129-2 0  9990",
        "tle_line2": "2 34651  86.2851 142.3937 0141979 217.4974 141.6250 14.25701829858352"
      },
      "geometry": {
        "type": "Point",
        "coordinates": [
          141.18836011217854,
          -13.2745349223519
        ]
      }
    },
    {
      "type": "Feature",
      "properties": {
        "norad_id": 34652,
        "name": "IRIDIUM 33 DEB",
        "group": "iridium-33-debris",
        "lat": -59.60577955058028,
        "lon": -24.720301587523203,
        "alt_km": 675.6668090630174,
        "timestamp": "2025-12-09T05:43:21.110900+00:00",
        "meta_object_name": "IRIDIUM 33 DEB",
        "meta_object_id": "1997-051KD",
        "meta_epoch": "2025-12-08T10:58:52.274208",
        "meta_mean_motion": 14.61994532,
        "meta_eccentricity": 0.00263276,
        "meta_inclination": 86.3309,
        "meta_ra_of_asc_node": 341.9078,
        "meta_arg_of_pericenter": 313.8102,
        "meta_mean_anomaly": 199.1921,
        "meta_ephemeris_type": 0,
        "meta_classification_type": "U",
        "meta_norad_cat_id": 34652,
        "meta_element_set_no": 999,
        "meta_rev_at_epoch": 88421,
        "meta_bstar": 0.0013948529,
        "meta_mean_motion_dot": 7.048e-05,
        "meta_mean_motion_ddot": 0,
        "tle_line1": "1 34652U 97051KD  25342.45754947  .00007048  00000+0  13949-2 0  9999",
        "tle_line2": "2 34652  86.3309 341.9078 0026327 313.8102 199.1921 14.61994532884210"
      },
      "geometry": {
        "type": "Point",
        "coordinates": [
          -24.720301587523203,
          -59.60577955058028
        ]
      }
    },
    {
      "type": "Feature",
      "properties": {
        "norad_id": 34690,
        "name": "IRIDIUM 33 DEB",
        "group": "iridium-33-debris",
        "lat": -70.26068215787149,
        "lon": -131.31982018659104,
        "alt_km": 723.3914419770517,
        "timestamp": "2025-12-09T05:43:21.110919+00:00",
        "meta_object_name": "IRIDIUM 33 DEB",
        "meta_object_id": "1997-051KM",
        "meta_epoch": "2025-12-08T10:30:30.417984",
        "meta_mean_motion": 14.55072153,
        "meta_eccentricity": 0.0011347,
        "meta_inclination": 86.3781,
        "meta_ra_of_asc_node": 38.8609,
        "meta_arg_of_pericenter": 42.3651,
        "meta_mean_anomaly": 337.2533,
        "meta_ephemeris_type": 0,
        "meta_classification_type": "U",
        "meta_norad_cat_id": 34690,
        "meta_element_set_no": 999,
        "meta_rev_at_epoch": 88032,
        "meta_bstar": 0.00077031918,
        "meta_mean_motion_dot": 3.344e-05,
        "meta_mean_motion_ddot": 0,
        "tle_line1": "1 34690U 97051KM  25342.43785206  .00003344  00000+0  77032-3 0  9990",
        "tle_line2": "2 34690  86.3781  38.8609 0011347  42.3651 337.2533 14.55072153880328"
      },
      "geometry": {
        "type": "Point",
        "coordinates": [
          -131.31982018659104,
          -70.26068215787149
        ]
      }
    },
    {
      "type": "Feature",
      "properties": {
        "norad_id": 34693,
        "name": "IRIDIUM 33 DEB",
        "group": "iridium-33-debris",
        "lat": 69.18600229727046,
        "lon": 115.77734034032842,
        "alt_km": 473.165898409542,
        "timestamp": "2025-12-09T05:43:21.110940+00:00",
        "meta_object_name": "IRIDIUM 33 DEB",
        "meta_object_id": "1997-051KQ",
        "meta_epoch": "2025-12-08T15:50:05.258976",
        "meta_mean_motion": 15.26461537,
        "meta_eccentricity": 0.0014846,
        "meta_inclination": 86.3061,
        "meta_ra_of_asc_node": 305.849,
        "meta_arg_of_pericenter": 59.4216,
        "meta_mean_anomaly": 113.0405,
        "meta_ephemeris_type": 0,
        "meta_classification_type": "U",
        "meta_norad_cat_id": 34693,
        "meta_element_set_no": 999,
        "meta_rev_at_epoch": 88852,
        "meta_bstar": 0.0056203,
        "meta_mean_motion_dot": 0.00149619,
        "meta_mean_motion_ddot": 0,
        "tle_line1": "1 34693U 97051KQ  25342.65978309  .00149619  00000+0  56203-2 0  9997",
        "tle_line2": "2 34693  86.3061 305.8490 0014846  59.4216 113.0405 15.26461537888525"
      },
      "geometry": {
        "type": "Point",
        "coordinates": [
          115.77734034032842,
          69.18600229727046
        ]
      }
    },
    {
      "type": "Feature",
      "properties": {
        "norad_id": 34696,
        "name": "IRIDIUM 33 DEB",
        "group": "iridium-33-debris",
        "lat": -84.26748027880956,
        "lon": -109.18754909981732,
        "alt_km": 681.5277815242735,
        "timestamp": "2025-12-09T05:43:21.110960+00:00",
        "meta_object_name": "IRIDIUM 33 DEB",
        "meta_object_id": "1997-051KT",
        "meta_epoch": "2025-12-08T14:27:39.651264",
        "meta_mean_motion": 14.64750758,
        "meta_eccentricity": 0.0074318,
        "meta_inclination": 86.1849,
        "meta_ra_of_asc_node": 29.4472,
        "meta_arg_of_pericenter": 181.4638,
        "meta_mean_anomaly": 332.3745,
        "meta_ephemeris_type": 0,
        "meta_classification_type": "U",
        "meta_norad_cat_id": 34696,
        "meta_element_set_no": 999,
        "meta_rev_at_epoch": 86612,
        "meta_bstar": 0.0061608,
        "meta_mean_motion_dot": 0.00034329,
        "meta_mean_motion_ddot": 0,
        "tle_line1": "1 34696U 97051KT  25342.60254226  .00034329  00000+0  61608-2 0  9996",
        "tle_line2": "2 34696  86.1849  29.4472 0074318 181.4638 332.3745 14.64750758866125"
      },
      "geometry": {
        "type": "Point",
        "coordinates": [
          -109.18754909981732,
          -84.26748027880956
        ]
      }
    }
  ]
}